NUSAT-1 (FRESCO)        
1 41557U 16033B   22185.14080159  .00006300  00000+0  18771-3 0  9996
2 41557  97.3897 282.8696 0009262 322.8709 155.3815 15.35005295339949
BEESAT-4                
1 41619U 16040W   22184.64781472  .00008338  00000+0  27612-3 0  9990
2 41619  97.2149 234.8471 0010855  66.7489 293.4895 15.31491296323204
CAS-2T & KS-1Q          
1 41847U 16066G   22184.89693362  .00000611  00000+0  10080-3 0  9995
2 41847  98.5501 249.5508 0364295 160.5395 201.0127 14.38609096296719
NAYIF-1 (EO-88)         
1 42017U 17008BX  22184.73275341  .00009635  00000+0  28547-3 0  9990
2 42017  97.2674 250.6140 0005658 168.1825 191.9553 15.35047282299576
ZHUHAI-1 02 (CAS-4B)    
1 42759U 17034B   22185.49828072  .00001435  00000+0  94977-4 0  9992
2 42759  43.0173 238.7458 0008621  27.2686 112.2398 15.12009414278934
ZHUHAI-1 01 (CAS-4A)    
1 42761U 17034D   22185.53326898  .00001550  00000+0  10131-3 0  9996
2 42761  43.0172 237.3221 0009078  29.4248 111.2966 15.12095783278949
MAX VALIER SAT          
1 42778U 17036P   22185.35992426  .00005098  00000+0  19359-3 0  9994
2 42778  97.2033 225.8812 0008749 263.3754  96.6490 15.27223019279486
RADFXSAT (FOX-1B)       
1 43017U 17073E   22184.65023550  .00001738  00000+0  13386-3 0  9998
2 43017  97.6736  78.1813 0249453 134.5578 227.6304 14.81468754249516
FOX-1D (AO-92)          
1 43137U 18004AC  22184.84342152  .00005605  00000+0  19772-3 0  9991
2 43137  97.3678 259.8544 0006006 310.1622  49.9092 15.29640884248851
DIWATA-2B               
1 43678U 18084H   22185.48198467  .00000789  00000+0  83250-4 0  9999
2 43678  97.9738 318.9490 0008752 223.1910 136.8603 14.92197129200393
ES'HAIL 2               
1 43700U 18090A   22184.86507730  .00000153  00000+0  00000+0 0  9992
2 43700   0.0218  37.6328 0001114  81.4628 139.9953  1.00268850 13195
FOX-1CLIFF (AO-95)      
1 43770U 18099N   22185.17293376  .00001026  00000+0  95171-4 0  9999
2 43770  97.6197 251.0891 0013415 214.8339 145.2005 14.96496451195519
ITASAT 1                
1 43786U 18099AE  22184.69662013  .00000439  00000+0  43429-4 0  9996
2 43786  97.6230 251.5529 0014025 209.0945 150.9497 14.96635979195488
JY1SAT (JO-97)          
1 43803U 18099AX  22184.90948309  .00001093  00000+0  99483-4 0  9993
2 43803  97.6184 251.5197 0014192 207.5874 152.4596 14.97139963195532
UWE-4                   
1 43880U 18111E   22184.69697463  .00001811  00000+0  15725-3 0  9995
2 43880  97.6685  90.7247 0009544 266.6550  93.3581 14.98235247192137
NEXUS (FO-99)           
1 43937U 19003F   22184.90281757  .00007932  00000+0  26515-3 0  9997
2 43937  97.1286 217.6152 0022573  95.7490 264.6327 15.31008671192495
PSAT2 (NO-104)          
1 44354U 19036R   22184.91745239  .00042031 -56913-5  35686-3 0  9997
2 44354  28.5250  64.0458 0223296 156.4345 204.6666 15.41696348167228
JAISAT-1                
1 44419U 19038F   22184.92261845  .00005015  00000+0  25217-3 0  9997
2 44419  97.6366 155.1800 0021259  76.1932 284.1665 15.17516734165552
DUCHIFAT-3              
1 44854U 19089C   22185.47238125  .00001710  00000+0  13691-3 0  9993
2 44854  36.9685 359.4445 0009090 351.8247  30.4122 15.01165108140494
CAS-6 (TO-108)          
1 44881U 19093C   22185.46097819  .00000298  00000+0  44388-4 0  9998
2 44881  97.8930 264.4262 0016106 127.5290 232.7393 14.81744258137294
RS-44 & BREEZE-KM R/B   
1 44909U 19096E   22184.84338910  .00000007  00000+0 -82750-5 0  9998
2 44909  82.5201 219.3869 0216180 281.4897  76.2001 12.79713776117602
ORBITAL FACTORY 2 (OF-2)
1 45113U 19071C   22184.78910160  .00016474  00000+0  33831-3 0  9993
2 45113  51.6394 338.9479 0009669 231.6632 128.3487 15.46100510135904
HUSKYSAT-1 (HO-107)     
1 45119U 19071J   22184.80502608  .00013802  00000+0  29481-3 0  9994
2 45119  51.6396 339.0278 0009408 227.6874 132.3316 15.45102084135896
BY70-2                  
1 45857U 20042B   22185.26202373  .00003718  00000+0  49803-3 0  9995
2 45857  97.9553 261.9425 0011885  69.2757 290.9712 14.79976291107943
SALSAT                  
1 46495U 20068K   22184.78990563  .00001600  00000+0  11830-3 0  9990
2 46495  97.7298 126.0955 0015526 218.7419 141.2695 15.04564330 96645
BY70-3                  
1 46839U 20079N   22185.57814516  .00012733  00000+0  29481-3 0  9995
2 46839  97.1974 257.4543 0003875 265.5405 233.3303 15.42574753 92886
RADFXSAT-2 (AO-109)     
1 47311U 21002C   22184.78974229  .00004772  00000+0  19695-3 0  9998
2 47311  60.6865 300.7400 0019300 351.0975   8.9768 15.25500437 80958
UVSQ-SAT                
1 47438U 21006AB  22184.71778075  .00003271  00000+0  17434-3 0  9998
2 47438  97.4358 243.3947 0011106 210.8615 149.1966 15.15838747 79740
DIY-1 (ARDUIQUBE)       
1 47963U 21022AH  22184.67441578  .00009567  00000+0  53012-3 0  9995
2 47963  97.5306  85.8482 0019189  77.5530 282.7847 15.13857133 69405
XW-3 (CAS-9)            
1 50466U 21131B   22185.21352431  .00000043  00000+0  28491-4 0  9992
2 50466  98.5804 262.4595 0005929 100.2600 259.9256 14.38504839 27321
TEVEL-3                 
1 50988U 22002E   22185.14120355  .00003234  00000+0  17867-3 0  9998
2 50988  97.4811 251.8459 0009569  17.3558  37.2529 15.14585044 25949
TEVEL-8                 
1 50989U 22002F   22184.96157699  .00003192  00000+0  17664-3 0  9997
2 50989  97.4818 251.6876 0009631  16.5661 108.3476 15.14531780 25910
TEVEL-5                 
1 50998U 22002Q   22185.15628398  .00003515  00000+0  19121-3 0  9997
2 50998  97.4803 251.9584 0010967  11.5677  40.5027 15.15065225 25959
TEVEL-6                 
1 50999U 22002R   22185.15590215  .00003526  00000+0  19178-3 0  9998
2 50999  97.4803 251.9574 0010874  11.2697  40.8499 15.15069995 25959
TEVEL-1                 
1 51013U 22002AF  22184.95788632  .00003126  00000+0  17292-3 0  9996
2 51013  97.4800 251.6481 0009675  17.2088 105.0738 15.14558753 25915
TEVEL-7                 
1 51062U 22002CG  22185.49204815  .00003262  00000+0  18045-3 0  9994
2 51062  97.4814 252.1974 0009578  14.1513 113.5636 15.14526223 25994
TEVEL-4                 
1 51063U 22002CH  22185.55493958  .00003214  00000+0  17790-3 0  9993
2 51063  97.4815 252.2564 0009564  14.3213  93.0579 15.14518310 26005
TEVEL-2                 
1 51069U 22002CP  22185.14223672  .00003245  00000+0  17930-3 0  9998
2 51069  97.4809 251.8357 0009617  16.8031  37.5338 15.14577651 25944
